[{"OBJECT_NAME":"FLOCK 4Q-7","OBJECT_ID":"2023-174BQ","EPOCH":"2026-03-15T05:42:20.793024","MEAN_MOTION":15.49667913,"ECCENTRICITY":0.00074385,"INCLINATION":97.3933,"RA_OF_ASC_NODE":162.9563,"ARG_OF_PERICENTER":121.6945,"MEAN_ANOMALY":238.5033,"EPHEMERIS_TYPE":0,"CLASSIFICATION_TYPE":"U","NORAD_CAT_ID":58318,"ELEMENT_SET_NO":999,"REV_AT_EPOCH":13117,"BSTAR":0.000732229,"MEAN_MOTION_DOT":0.00040656,"MEAN_MOTION_DDOT":0},{"OBJECT_NAME":"FLOCK 4Q-2","OBJECT_ID":"2023-174BS","EPOCH":"2026-03-15T05:53:43.803168","MEAN_MOTION":15.45347945,"ECCENTRICITY":0.0007915,"INCLINATION":97.3858,"RA_OF_ASC_NODE":160.7504,"ARG_OF_PERICENTER":122.3443,"MEAN_ANOMALY":237.8573,"EPHEMERIS_TYPE":0,"CLASSIFICATION_TYPE":"U","NORAD_CAT_ID":58320,"ELEMENT_SET_NO":999,"REV_AT_EPOCH":13107,"BSTAR":0.00063343264,"MEAN_MOTION_DOT":0.00030239,"MEAN_MOTION_DDOT":0},{"OBJECT_NAME":"FLOCK 4Q-9","OBJECT_ID":"2023-174BU","EPOCH":"2026-03-15T04:49:24.007584","MEAN_MOTION":15.45022683,"ECCENTRICITY":0.00081925,"INCLINATION":97.3901,"RA_OF_ASC_NODE":160.7504,"ARG_OF_PERICENTER":124.5862,"MEAN_ANOMALY":235.616,"EPHEMERIS_TYPE":0,"CLASSIFICATION_TYPE":"U","NORAD_CAT_ID":58322,"ELEMENT_SET_NO":999,"REV_AT_EPOCH":13105,"BSTAR":0.00063349411,"MEAN_MOTION_DOT":0.00029909,"MEAN_MOTION_DDOT":0},{"OBJECT_NAME":"FLOCK 4Q-4","OBJECT_ID":"2023-174BZ","EPOCH":"2026-03-15T04:53:58.373376","MEAN_MOTION":15.44573288,"ECCENTRICITY":0.0007788,"INCLINATION":97.3854,"RA_OF_ASC_NODE":160.1183,"ARG_OF_PERICENTER":140.999,"MEAN_ANOMALY":219.1822,"EPHEMERIS_TYPE":0,"CLASSIFICATION_TYPE":"U","NORAD_CAT_ID":58327,"ELEMENT_SET_NO":999,"REV_AT_EPOCH":13103,"BSTAR":0.00059451077,"MEAN_MOTION_DOT":0.00027627,"MEAN_MOTION_DDOT":0},{"OBJECT_NAME":"FLOCK 4Q-13","OBJECT_ID":"2023-174CA","EPOCH":"2026-03-15T05:29:22.651296","MEAN_MOTION":15.4733348,"ECCENTRICITY":0.0007735,"INCLINATION":97.4007,"RA_OF_ASC_NODE":162.5977,"ARG_OF_PERICENTER":133.0178,"MEAN_ANOMALY":227.1721,"EPHEMERIS_TYPE":0,"CLASSIFICATION_TYPE":"U","NORAD_CAT_ID":58328,"ELEMENT_SET_NO":999,"REV_AT_EPOCH":13112,"BSTAR":0.00064356114,"MEAN_MOTION_DOT":0.000329,"MEAN_MOTION_DDOT":0},{"OBJECT_NAME":"FLOCK 4Q-21","OBJECT_ID":"2023-174CB","EPOCH":"2026-03-15T05:29:38.074560","MEAN_MOTION":15.57969811,"ECCENTRICITY":0.00056604,"INCLINATION":97.3921,"RA_OF_ASC_NODE":165.7637,"ARG_OF_PERICENTER":138.5706,"MEAN_ANOMALY":221.598,"EPHEMERIS_TYPE":0,"CLASSIFICATION_TYPE":"U","NORAD_CAT_ID":58329,"ELEMENT_SET_NO":999,"REV_AT_EPOCH":13135,"BSTAR":0.00068130617,"MEAN_MOTION_DOT":0.00051143,"MEAN_MOTION_DDOT":0},{"OBJECT_NAME":"FLOCK 4BE-18","OBJECT_ID":"2024-149N","EPOCH":"2026-03-15T04:56:57.010560","MEAN_MOTION":15.38553317,"ECCENTRICITY":0.00035768,"INCLINATION":97.3772,"RA_OF_ASC_NODE":157.1675,"ARG_OF_PERICENTER":218.0737,"MEAN_ANOMALY":142.0255,"EPHEMERIS_TYPE":0,"CLASSIFICATION_TYPE":"U","NORAD_CAT_ID":60480,"ELEMENT_SET_NO":999,"REV_AT_EPOCH":8784,"BSTAR":0.00059567021,"MEAN_MOTION_DOT":0.0002263,"MEAN_MOTION_DDOT":0},{"OBJECT_NAME":"FLOCK 4BE-7","OBJECT_ID":"2024-149P","EPOCH":"2026-03-15T03:54:27.112320","MEAN_MOTION":15.36496937,"ECCENTRICITY":0.00026552,"INCLINATION":97.3796,"RA_OF_ASC_NODE":156.6964,"ARG_OF_PERICENTER":210.7054,"MEAN_ANOMALY":149.4035,"EPHEMERIS_TYPE":0,"CLASSIFICATION_TYPE":"U","NORAD_CAT_ID":60481,"ELEMENT_SET_NO":999,"REV_AT_EPOCH":8779,"BSTAR":0.00059955888,"MEAN_MOTION_DOT":0.00021307,"MEAN_MOTION_DDOT":0},{"OBJECT_NAME":"FLOCK 4BE-26","OBJECT_ID":"2024-149S","EPOCH":"2026-03-15T04:43:23.765376","MEAN_MOTION":15.45525024,"ECCENTRICITY":0.00064579,"INCLINATION":97.3755,"RA_OF_ASC_NODE":157.1343,"ARG_OF_PERICENTER":226.7049,"MEAN_ANOMALY":133.3662,"EPHEMERIS_TYPE":0,"CLASSIFICATION_TYPE":"U","NORAD_CAT_ID":60484,"ELEMENT_SET_NO":999,"REV_AT_EPOCH":8784,"BSTAR":0.0022646304,"MEAN_MOTION_DOT":0.00110063,"MEAN_MOTION_DDOT":0},{"OBJECT_NAME":"FLOCK 4BE-36","OBJECT_ID":"2024-149U","EPOCH":"2026-03-15T05:34:16.537440","MEAN_MOTION":15.39441313,"ECCENTRICITY":0.00030816,"INCLINATION":97.3775,"RA_OF_ASC_NODE":157.7479,"ARG_OF_PERICENTER":229.2305,"MEAN_ANOMALY":130.8674,"EPHEMERIS_TYPE":0,"CLASSIFICATION_TYPE":"U","NORAD_CAT_ID":60486,"ELEMENT_SET_NO":999,"REV_AT_EPOCH":8788,"BSTAR":0.000603536,"MEAN_MOTION_DOT":0.00023606,"MEAN_MOTION_DDOT":0},{"OBJECT_NAME":"FLOCK 4BE-25","OBJECT_ID":"2024-149V","EPOCH":"2026-03-15T04:15:53.468352","MEAN_MOTION":15.36207706,"ECCENTRICITY":0.00020479,"INCLINATION":97.3836,"RA_OF_ASC_NODE":156.8611,"ARG_OF_PERICENTER":196.9511,"MEAN_ANOMALY":163.1665,"EPHEMERIS_TYPE":0,"CLASSIFICATION_TYPE":"U","NORAD_CAT_ID":60487,"ELEMENT_SET_NO":999,"REV_AT_EPOCH":8779,"BSTAR":0.00054155102,"MEAN_MOTION_DOT":0.00019054,"MEAN_MOTION_DDOT":0},{"OBJECT_NAME":"FLOCK 4BE-31","OBJECT_ID":"2024-149W","EPOCH":"2026-03-15T04:45:23.603904","MEAN_MOTION":15.40259413,"ECCENTRICITY":0.00022667,"INCLINATION":97.3833,"RA_OF_ASC_NODE":158.3475,"ARG_OF_PERICENTER":217.0654,"MEAN_ANOMALY":143.0436,"EPHEMERIS_TYPE":0,"CLASSIFICATION_TYPE":"U","NORAD_CAT_ID":60488,"ELEMENT_SET_NO":999,"REV_AT_EPOCH":8789,"BSTAR":0.0006625696,"MEAN_MOTION_DOT":0.00026637,"MEAN_MOTION_DDOT":0},{"OBJECT_NAME":"FLOCK 4BE-20","OBJECT_ID":"2024-149X","EPOCH":"2026-03-15T05:22:10.202880","MEAN_MOTION":15.35463771,"ECCENTRICITY":0.00032103,"INCLINATION":97.3744,"RA_OF_ASC_NODE":156.0231,"ARG_OF_PERICENTER":219.6294,"MEAN_ANOMALY":140.4716,"EPHEMERIS_TYPE":0,"CLASSIFICATION_TYPE":"U","NORAD_CAT_ID":60489,"ELEMENT_SET_NO":999,"REV_AT_EPOCH":8778,"BSTAR":0.00050419145,"MEAN_MOTION_DOT":0.00017314,"MEAN_MOTION_DDOT":0},{"OBJECT_NAME":"FLOCK 4BE-23","OBJECT_ID":"2024-149Y","EPOCH":"2026-03-15T04:36:05.376960","MEAN_MOTION":15.35103092,"ECCENTRICITY":0.00026568,"INCLINATION":97.3822,"RA_OF_ASC_NODE":156.3156,"ARG_OF_PERICENTER":226.694,"MEAN_ANOMALY":133.4082,"EPHEMERIS_TYPE":0,"CLASSIFICATION_TYPE":"U","NORAD_CAT_ID":60490,"ELEMENT_SET_NO":999,"REV_AT_EPOCH":8776,"BSTAR":0.00048695814,"MEAN_MOTION_DOT":0.00016526,"MEAN_MOTION_DDOT":0},{"OBJECT_NAME":"FLOCK 4BE-15","OBJECT_ID":"2024-149Z","EPOCH":"2026-03-15T05:31:00.494976","MEAN_MOTION":15.41417041,"ECCENTRICITY":0.00036979,"INCLINATION":97.3749,"RA_OF_ASC_NODE":157.4528,"ARG_OF_PERICENTER":282.7056,"MEAN_ANOMALY":77.3777,"EPHEMERIS_TYPE":0,"CLASSIFICATION_TYPE":"U","NORAD_CAT_ID":60491,"ELEMENT_SET_NO":999,"REV_AT_EPOCH":8787,"BSTAR":0.0020502482,"MEAN_MOTION_DOT":0.00086496,"MEAN_MOTION_DDOT":0},{"OBJECT_NAME":"FLOCK 4BE-17","OBJECT_ID":"2024-149AA","EPOCH":"2026-03-15T03:56:33.334944","MEAN_MOTION":15.36868955,"ECCENTRICITY":0.00027084,"INCLINATION":97.3819,"RA_OF_ASC_NODE":156.9823,"ARG_OF_PERICENTER":213.2492,"MEAN_ANOMALY":146.8582,"EPHEMERIS_TYPE":0,"CLASSIFICATION_TYPE":"U","NORAD_CAT_ID":60492,"ELEMENT_SET_NO":999,"REV_AT_EPOCH":8780,"BSTAR":0.00056900592,"MEAN_MOTION_DOT":0.00020458,"MEAN_MOTION_DDOT":0}]
