FLOCK 4Q-7              
1 58318U 23174BQ  26074.23774066  .00040656  00000+0  73223-3 0  9996
2 58318  97.3933 162.9563 0007438 121.6945 238.5033 15.49667913131171
FLOCK 4Q-2              
1 58320U 23174BS  26074.24564587  .00030239  00000+0  63343-3 0  9993
2 58320  97.3858 160.7504 0007915 122.3443 237.8573 15.45347945131078
FLOCK 4Q-9              
1 58322U 23174BU  26074.20097231  .00029909  00000+0  63349-3 0  9996
2 58322  97.3901 160.7504 0008192 124.5862 235.6160 15.45022683131051
FLOCK 4Q-4              
1 58327U 23174BZ  26074.20414784  .00027627  00000+0  59451-3 0  9991
2 58327  97.3854 160.1183 0007788 140.9990 219.1822 15.44573288131035
FLOCK 4Q-13             
1 58328U 23174CA  26074.22873439  .00032900  00000+0  64356-3 0  9990
2 58328  97.4007 162.5977 0007735 133.0178 227.1721 15.47333480131125
FLOCK 4Q-21             
1 58329U 23174CB  26074.22891290  .00051143  00000+0  68131-3 0  9991
2 58329  97.3921 165.7637 0005660 138.5706 221.5980 15.57969811131354
FLOCK 4BE-18            
1 60480U 24149N   26074.20621540  .00022630  00000+0  59567-3 0  9994
2 60480  97.3772 157.1675 0003576 218.0737 142.0255 15.38553317 87843
FLOCK 4BE-7             
1 60481U 24149P   26074.16281380  .00021307  00000+0  59956-3 0  9996
2 60481  97.3796 156.6964 0002655 210.7054 149.4035 15.36496937 87796
FLOCK 4BE-26            
1 60484U 24149S   26074.19680284  .00110063  00000+0  22646-2 0  9991
2 60484  97.3755 157.1343 0006457 226.7049 133.3662 15.45525024 87840
FLOCK 4BE-36            
1 60486U 24149U   26074.23213585  .00023606  00000+0  60354-3 0  9999
2 60486  97.3775 157.7479 0003081 229.2305 130.8674 15.39441313 87883
FLOCK 4BE-25            
1 60487U 24149V   26074.17770218  .00019054  00000+0  54155-3 0  9998
2 60487  97.3836 156.8611 0002047 196.9511 163.1665 15.36207706 87792
FLOCK 4BE-31            
1 60488U 24149W   26074.19818986  .00026637  00000+0  66257-3 0  9997
2 60488  97.3833 158.3475 0002266 217.0654 143.0436 15.40259413 87892
FLOCK 4BE-20            
1 60489U 24149X   26074.22372920  .00017314  00000+0  50419-3 0  9990
2 60489  97.3744 156.0231 0003210 219.6294 140.4716 15.35463771 87785
FLOCK 4BE-23            
1 60490U 24149Y   26074.19172890  .00016526  00000+0  48696-3 0  9990
2 60490  97.3822 156.3156 0002656 226.6940 133.4082 15.35103092 87765
FLOCK 4BE-15            
1 60491U 24149Z   26074.22986684  .00086496  00000+0  20502-2 0  9997
2 60491  97.3749 157.4528 0003697 282.7056  77.3777 15.41417041 87874
FLOCK 4BE-17            
1 60492U 24149AA  26074.16427471  .00020458  00000+0  56901-3 0  9994
2 60492  97.3819 156.9823 0002708 213.2492 146.8582 15.36868955 87807
